{
    "links": {
        "self": "http://www.neowsapp.com/rest/v1/neo/3273789?api_key=iIulBulltgU6a56xZRHN4H3l9WmuAYTsLGpBGhQ2"
    },
    "id": "3273789",
    "neo_reference_id": "3273789",
    "name": "(2005 EO70)",
    "designation": "2005 EO70",
    "nasa_jpl_url": "http://ssd.jpl.nasa.gov/sbdb.cgi?sstr=3273789",
    "absolute_magnitude_h": 20.8,
    "estimated_diameter": {
        "kilometers": {
            "estimated_diameter_min": 0.1838886721,
            "estimated_diameter_max": 0.411187571
        },
        "meters": {
            "estimated_diameter_min": 183.8886720703,
            "estimated_diameter_max": 411.1875710413
        },
        "miles": {
            "estimated_diameter_min": 0.1142630881,
            "estimated_diameter_max": 0.2555000322
        },
        "feet": {
            "estimated_diameter_min": 603.309310875,
            "estimated_diameter_max": 1349.040630575
        }
    },
    "is_potentially_hazardous_asteroid": false,
    "close_approach_data": [
        {
            "close_approach_date": "2005-03-27",
            "close_approach_date_full": "2005-Mar-27 19:39",
            "epoch_date_close_approach": 1111952340000,
            "relative_velocity": {
                "kilometers_per_second": "16.9820870916",
                "kilometers_per_hour": "61135.5135298691",
                "miles_per_hour": "37987.2306152678"
            },
            "miss_distance": {
                "astronomical": "0.1538516217",
                "lunar": "59.8482808413",
                "kilometers": "23015874.902365779",
                "miles": "14301401.4995305902"
            },
            "orbiting_body": "Earth"
        },
        {
            "close_approach_date": "2163-03-02",
            "close_approach_date_full": "2163-Mar-02 09:59",
            "epoch_date_close_approach": 6095728740000,
            "relative_velocity": {
                "kilometers_per_second": "23.8710379214",
                "kilometers_per_hour": "85935.7365170699",
                "miles_per_hour": "53397.1247263982"
            },
            "miss_distance": {
                "astronomical": "0.4632605592",
                "lunar": "180.2083575288",
                "kilometers": "69302792.911328904",
                "miles": "43062758.6684467152"
            },
            "orbiting_body": "Earth"
        }
    ],
    "orbital_data": {
        "orbit_id": "14",
        "orbit_determination_date": "2017-04-06 09:11:20",
        "first_observation_date": "2005-03-08",
        "last_observation_date": "2005-04-20",
        "data_arc_in_days": 43,
        "observations_used": 52,
        "orbit_uncertainty": "7",
        "minimum_orbit_intersection": ".144337",
        "jupiter_tisserand_invariant": "2.730",
        "epoch_osculation": "2459000.5",
        "eccentricity": ".649677992700891",
        "semi_major_axis": "3.144779296524826",
        "inclination": "24.49662287634237",
        "ascending_node_longitude": "4.193086110815168",
        "orbital_period": "2036.965551301251",
        "perihelion_distance": "1.101685395671257",
        "perihelion_argument": "208.6723087236103",
        "aphelion_distance": "5.187873197378394",
        "perihelion_time": "2459575.141464738393",
        "mean_anomaly": "258.4416171526963",
        "mean_motion": ".1767334748346752",
        "equinox": "J2000",
        "orbit_class": {
            "orbit_class_type": "AMO",
            "orbit_class_description": "Near-Earth asteroid orbits similar to that of 1221 Amor",
            "orbit_class_range": "1.017 AU < q (perihelion) < 1.3 AU"
        }
    },
    "is_sentry_object": false
}